NORAD_CAT_ID,OBJECT_NAME,OBJECT_TYPE,EPOCH,MEAN_MOTION,ECCENTRICITY,INCLINATION,RA_OF_ASC_NODE,ARG_OF_PERICENTER,MEAN_ANOMALY,BSTAR,MEAN_MOTION_DOT,MEAN_MOTION_DDOT,TLE_LINE0,TLE_LINE1,TLE_LINE2,SEMIMAJOR_AXIS,PERIOD,APOGEE,PERIGEE,DECAYED
52274.0,STARLINK-3790,PAYLOAD,2024-01-29 19:59:32,15.0884547,0.0001812,53.2198,325.1371,115.6061,244.5118,-5.5024e-06,-3.76e-06,0.0,0 STARLINK-3790,1 52274U 22041P   24029.83301377 -.00000376  00000-0 -55024-5 0  9997,2 52274  53.2198 325.1371 0001812 115.6061 244.5118 15.08845470 99368,6917.864,95.437,540.982,538.475,0.0
52274.0,STARLINK-3790,PAYLOAD,2024-01-30 05:31:51,15.08843583,0.0001638,53.2197,323.3541,109.3663,250.7506,4.4514e-05,4.21e-06,0.0,0 STARLINK-3790,1 52274U 22041P   24030.23045285  .00000421  00000-0  44514-4 0  9996,2 52274  53.2197 323.3541 0001638 109.3663 250.7506 15.08843583 98205,6917.869,95.437,540.868,538.601,0.0
52274.0,STARLINK-3790,PAYLOAD,2024-01-30 23:01:06,15.08839521,0.0001976,53.2191,320.0829,124.6927,235.4251,-5.658e-05,-1.189e-05,0.0,0 STARLINK-3790,1 52274U 22041P   24030.95909831 -.00001189  00000-0 -56580-4 0  9991,2 52274  53.2191 320.0829 0001976 124.6927 235.4251 15.08839521 98316,6917.882,95.438,541.114,538.38,0.0
52274.0,STARLINK-3790,PAYLOAD,2024-01-31 02:11:52,15.08838289,0.0001651,53.219,319.4887,109.1242,250.9929,-3.5531e-05,-8.53e-06,0.0,0 STARLINK-3790,1 52274U 22041P   24031.09157916 -.00000853  00000-0 -35531-4 0  9996,2 52274  53.2190 319.4887 0001651 109.1242 250.9929 15.08838289 99550,6917.886,95.438,540.893,538.608,0.0
52274.0,STARLINK-3790,PAYLOAD,2024-01-31 05:22:38,15.08839272,0.0001732,53.2191,318.8942,114.652,245.4653,-4.7323e-05,-1.041e-05,0.0,0 STARLINK-3790,1 52274U 22041P   24031.22405879 -.00001041  00000-0 -47323-4 0  9997,2 52274  53.2191 318.8942 0001732 114.6520 245.4653 15.08839272 98359,6917.883,95.438,540.946,538.549,0.0
52274.0,STARLINK-3790,PAYLOAD,2024-01-31 19:41:07,15.08845112,0.0001553,53.2193,316.2175,102.703,257.4136,-0.00010384,-1.94e-05,0.0,0 STARLINK-3790,1 52274U 22041P   24031.82022029 -.00001940  00000-0 -10384-3 0  9999,2 52274  53.2193 316.2175 0001553 102.7030 257.4136 15.08845112 98445,6917.865,95.437,540.804,538.655,0.0
52274.0,STARLINK-3790,PAYLOAD,2024-02-01 00:27:16,15.08836115,0.0001625,53.2189,315.326,100.7454,259.3721,2.6704e-05,1.37e-06,0.0,0 STARLINK-3790,1 52274U 22041P   24032.01894169  .00000137  00000-0  26704-4 0  9992,2 52274  53.2189 315.3260 0001625 100.7454 259.3721 15.08836115 98470,6917.892,95.438,540.881,538.633,0.0
52274.0,STARLINK-3790,PAYLOAD,2024-02-02 01:53:26,15.08840839,0.000148,53.2189,310.569,98.4723,261.6437,9.7585e-05,1.265e-05,0.0,0 STARLINK-3790,1 52274U 22041P   24033.07877894  .00001265  00000-0  97585-4 0  9993,2 52274  53.2189 310.5690 0001480  98.4723 261.6437 15.08840839 99856,6917.878,95.438,540.767,538.719,0.0
52274.0,STARLINK-3790,PAYLOAD,2024-02-02 22:33:27,15.08836671,0.0001371,53.2187,306.7071,89.8602,270.2548,1.5018e-05,-4.9e-07,0.0,0 STARLINK-3790,1 52274U 22041P   24033.93990666 -.00000049  00000-0  15018-4 0  9992,2 52274  53.2187 306.7071 0001371  89.8602 270.2548 15.08836671 98760,6917.891,95.438,540.704,538.807,0.0
52274.0,STARLINK-3790,PAYLOAD,2024-02-03 01:44:14,15.08838231,0.0001367,53.2183,306.1135,85.4035,274.7113,2.4779e-05,1.06e-06,0.0,0 STARLINK-3790,1 52274U 22041P   24034.07238582  .00000106  00000-0  24779-4 0  9997,2 52274  53.2183 306.1135 0001367  85.4035 274.7113 15.08838231100000,6917.886,95.438,540.696,538.805,0.0
52274.0,STARLINK-3790,PAYLOAD,2024-02-03 22:24:14,15.08840572,0.0001456,53.2185,302.249,78.1522,281.9634,8.0645e-05,9.96e-06,0.0,0 STARLINK-3790,1 52274U 22041P   24034.93350296  .00000996  00000-0  80645-4 0  9990,2 52274  53.2185 302.2490 0001456  78.1522 281.9634 15.08840572 98917,6917.879,95.438,540.751,538.736,0.0
52274.0,STARLINK-3790,PAYLOAD,2024-02-03 23:59:37,15.08842497,0.0001685,53.219,301.9525,68.2766,291.8406,9.3015e-05,1.193e-05,0.0,0 STARLINK-3790,1 52274U 22041P   24034.99974251  .00001193  00000-0  93015-4 0  9994,2 52274  53.2190 301.9525 0001685  68.2766 291.8406 15.08842497 98928,6917.873,95.437,540.903,538.572,0.0
52274.0,STARLINK-3790,PAYLOAD,2024-02-04 22:15:01,15.08845012,0.0001765,53.2187,297.7902,64.2543,295.8631,8.6962e-05,1.096e-05,0.0,0 STARLINK-3790,1 52274U 22041P   24035.92710036  .00001096  00000-0  86962-4 0  9992,2 52274  53.2187 297.7902 0001765  64.2543 295.8631 15.08845012 99069,6917.865,95.437,540.951,538.509,0.0
52274.0,STARLINK-3790,PAYLOAD,2024-02-04 23:50:24,15.08845427,0.0001782,53.2186,297.4928,63.7988,296.3188,8.9806e-05,1.142e-05,0.0,0 STARLINK-3790,1 52274U 22041P   24035.99333993  .00001142  00000-0  89806-4 0  9994,2 52274  53.2186 297.4928 0001782  63.7988 296.3188 15.08845427 99073,6917.864,95.437,540.962,538.496,0.0
52274.0,STARLINK-3790,PAYLOAD,2024-02-05 20:30:25,15.08841603,0.0001667,53.2193,293.6263,73.6996,286.4179,-7.7466e-06,-4.11e-06,0.0,0 STARLINK-3790,1 52274U 22041P   24036.85446390 -.00000411  00000-0 -77466-5 0  9996,2 52274  53.2193 293.6263 0001667  73.6996 286.4179 15.08841603100426,6917.875,95.437,540.894,538.587,0.0
52274.0,STARLINK-3790,PAYLOAD,2024-02-05 22:05:48,15.08840443,0.000157,53.2186,293.3284,73.5224,286.594,-2.1186e-05,-6.25e-06,0.0,0 STARLINK-3790,1 52274U 22041P   24036.92070450 -.00000625  00000-0 -21186-4 0  9998,2 52274  53.2186 293.3284 0001570  73.5224 286.5940 15.08840443 99216,6917.879,95.438,540.83,538.658,0.0
52274.0,STARLINK-3790,PAYLOAD,2024-02-06 02:51:58,15.08825201,0.0001556,53.2176,292.4311,81.45,278.6668,0.00022356,3.27e-05,0.0,0 STARLINK-3790,1 52274U 22041P   24037.11942679  .00003270  00000-0  22356-3 0  9997,2 52274  53.2176 292.4311 0001556  81.4500 278.6668 15.08825201100469,6917.926,95.438,540.867,538.714,0.0
52274.0,STARLINK-3790,PAYLOAD,2024-02-06 21:56:35,15.08845022,0.0001496,53.218,288.8612,96.6601,263.4561,-8.811e-06,-4.28e-06,0.0,0 STARLINK-3790,1 52274U 22041P   24037.91429846 -.00000428  00000-0 -88110-5 0  9997,2 52274  53.2180 288.8612 0001496  96.6601 263.4561 15.08845022 99363,6917.865,95.437,540.765,538.695,0.0
52274.0,STARLINK-3790,PAYLOAD,2024-02-06 23:31:58,15.08845904,0.0001503,53.2177,288.5639,94.2985,265.8179,4.4086e-06,-2.18e-06,0.0,0 STARLINK-3790,1 52274U 22041P   24037.98053748 -.00000218  00000-0  44086-5 0  9998,2 52274  53.2177 288.5639 0001503  94.2985 265.8179 15.08845904100591,6917.862,95.437,540.767,538.688,0.0
52274.0,STARLINK-3790,PAYLOAD,2024-02-07 09:04:17,15.08846325,0.0001494,53.2168,286.7809,78.2094,281.9066,1.6134e-05,-3.1e-07,0.0,0 STARLINK-3790,1 52274U 22041P   24038.37797657 -.00000031  00000-0  16134-4 0  9991,2 52274  53.2168 286.7809 0001494  78.2094 281.9066 15.08846325 99434,6917.861,95.437,540.76,538.693,0.0
52274.0,STARLINK-3790,PAYLOAD,2024-02-07 20:12:00,15.08834287,0.0001747,53.2178,284.7086,114.4971,245.6203,-1.4541e-05,-5.19e-06,0.0,0 STARLINK-3790,1 52274U 22041P   24038.84166941 -.00000519  00000-0 -14541-4 0  9991,2 52274  53.2178 284.7086 0001747 114.4971 245.6203 15.08834287100727,6917.898,95.438,540.971,538.554,0.0
52274.0,STARLINK-3790,PAYLOAD,2024-02-07 21:47:23,15.08832731,0.0001715,53.2185,284.4119,116.8283,243.2885,-2.1138e-05,-6.24e-06,0.0,0 STARLINK-3790,1 52274U 22041P   24038.90791027 -.00000624  00000-0 -21138-4 0  9994,2 52274  53.2185 284.4119 0001715 116.8283 243.2885 15.08832731 99512,6917.903,95.438,540.954,538.581,0.0
52274.0,STARLINK-3790,PAYLOAD,2024-02-08 08:55:05,15.08832667,0.0001511,53.2183,282.329,112.8562,247.259,-6.1365e-05,-1.264e-05,0.0,0 STARLINK-3790,1 52274U 22041P   24039.37159322 -.00001264  00000-0 -61365-4 0  9999,2 52274  53.2183 282.3290 0001511 112.8562 247.2590 15.08832667 99589,6917.903,95.438,540.813,538.723,0.0
52274.0,STARLINK-3790,PAYLOAD,2024-02-08 21:38:10,15.08842142,0.0001447,53.2174,279.9489,110.6471,249.4676,-9.0373e-06,-4.32e-06,0.0,0 STARLINK-3790,1 52274U 22041P   24039.90150748 -.00000432  00000-0 -90373-5 0  9999,2 52274  53.2174 279.9489 0001447 110.6471 249.4676 15.08842142 99661,6917.874,95.437,540.74,538.738,0.0
52274.0,STARLINK-3790,PAYLOAD,2024-02-09 00:48:56,15.08844089,0.0001397,53.2181,279.3486,97.3045,262.8106,2.5942e-06,-2.47e-06,0.0,0 STARLINK-3790,1 52274U 22041P   24040.03398600 -.00000247  00000-0  25942-5 0  9999,2 52274  53.2181 279.3486 0001397  97.3045 262.8106 15.08844089100901,6917.868,95.437,540.699,538.766,0.0
52274.0,STARLINK-3790,PAYLOAD,2024-02-09 19:53:34,15.08832735,0.0001528,53.2184,275.7796,81.6823,278.4342,0.00012359,1.679e-05,0.0,0 STARLINK-3790,1 52274U 22041P   24040.82887269  .00001679  00000-0  12359-3 0  9995,2 52274  53.2184 275.7796 0001528  81.6823 278.4342 15.08832735101028,6917.903,95.438,540.825,538.711,0.0
52274.0,STARLINK-3790,PAYLOAD,2024-02-10 00:39:43,15.08841731,0.0001541,53.2177,274.8829,73.9493,286.1669,0.00013529,1.866e-05,0.0,0 STARLINK-3790,1 52274U 22041P   24041.02758729  .00001866  00000-0  13529-3 0  9994,2 52274  53.2177 274.8829 0001541  73.9493 286.1669 15.08841731101056,6917.875,95.437,540.806,538.674,0.0
52274.0,STARLINK-3790,PAYLOAD,2024-02-10 19:44:21,15.08837204,0.0001711,53.2191,271.3164,95.976,264.1427,6.6995e-05,7.78e-06,0.0,0 STARLINK-3790,1 52274U 22041P   24041.82247483  .00000778  00000-0  66995-4 0  9999,2 52274  53.2191 271.3164 0001711  95.9760 264.1427 15.08837204101177,6917.889,95.438,540.938,538.57,0.0
52274.0,STARLINK-3790,PAYLOAD,2024-02-10 22:55:08,15.08839761,0.0001835,53.2188,270.7217,65.2557,294.8626,5.0246e-05,5.12e-06,0.0,0 STARLINK-3790,1 52274U 22041P   24041.95495586  .00000512  00000-0  50246-4 0  9990,2 52274  53.2188 270.7217 0001835  65.2557 294.8626 15.08839761 99971,6917.881,95.438,541.016,538.477,0.0
52274.0,STARLINK-3790,PAYLOAD,2024-02-11 00:30:31,15.08841366,0.0001784,53.2188,270.4219,67.6984,292.4197,6.4427e-05,7.37e-06,0.0,0 STARLINK-3790,1 52274U 22041P   24042.02119404  .00000737  00000-0  64427-4 0  9996,2 52274  53.2188 270.4219 0001784  67.6984 292.4197 15.08841366 99985,6917.876,95.437,540.975,538.507,0.0
